[{"OBJECT_NAME":"SATELIOT_1","OBJECT_ID":"2024-149CL","EPOCH":"2026-03-09T18:08:18.068352","MEAN_MOTION":14.97604186,"ECCENTRICITY":0.00077489,"INCLINATION":97.6798,"RA_OF_ASC_NODE":146.3176,"ARG_OF_PERICENTER":58.9869,"MEAN_ANOMALY":301.2113,"EPHEMERIS_TYPE":0,"CLASSIFICATION_TYPE":"U","NORAD_CAT_ID":60550,"ELEMENT_SET_NO":999,"REV_AT_EPOCH":8518,"BSTAR":0.00029754021,"MEAN_MOTION_DOT":3.421e-5,"MEAN_MOTION_DDOT":0},{"OBJECT_NAME":"STARLINK-36170","OBJECT_ID":"2025-298J","EPOCH":"2026-03-09T22:52:08.345568","MEAN_MOTION":14.9914019,"ECCENTRICITY":0.00020247,"INCLINATION":70.0025,"RA_OF_ASC_NODE":13.9165,"ARG_OF_PERICENTER":262.148,"MEAN_ANOMALY":97.9449,"EPHEMERIS_TYPE":0,"CLASSIFICATION_TYPE":"U","NORAD_CAT_ID":67083,"ELEMENT_SET_NO":999,"REV_AT_EPOCH":1325,"BSTAR":0.00012309933,"MEAN_MOTION_DOT":1.407e-5,"MEAN_MOTION_DDOT":0}]
